NAVSTAR 77 (USA 289)    
1 43873U 18109A   23259.17651618  .00000036  00000+0  00000+0 0  9997
2 43873  55.1956 131.8975 0025813 190.5915  25.1156  2.00569455 34914
